NORAD_CAT_ID,OBJECT_NAME,OBJECT_TYPE,EPOCH,MEAN_MOTION,ECCENTRICITY,INCLINATION,RA_OF_ASC_NODE,ARG_OF_PERICENTER,MEAN_ANOMALY,BSTAR,MEAN_MOTION_DOT,MEAN_MOTION_DDOT,TLE_LINE0,TLE_LINE1,TLE_LINE2,SEMIMAJOR_AXIS,PERIOD,APOGEE,PERIGEE,DECAYED
53733.0,STARLINK-4574,PAYLOAD,2023-10-24 00:47:13,15.08852974,0.0001703,53.2165,189.4153,84.2203,275.8983,9.5701e-05,1.236e-05,0.0,0 STARLINK-4574,1 53733U 22107AK  23297.03279622  .00001236  00000-0  95701-4 0  9995,2 53733  53.2165 189.4153 0001703  84.2203 275.8983 15.08852974 62960,6917.841,95.437,540.884,538.528,0.0
53733.0,STARLINK-4574,PAYLOAD,2023-10-24 10:19:32,15.08852273,0.0001626,53.2159,187.6323,82.4919,277.6258,0.00011046,1.471e-05,0.0,0 STARLINK-4574,1 53733U 22107AK  23297.43023621  .00001471  00000-0  11046-3 0  9995,2 53733  53.2159 187.6323 0001626  82.4919 277.6258 15.08852273 63654,6917.843,95.437,540.833,538.583,0.0
53733.0,STARLINK-4574,PAYLOAD,2023-10-25 02:13:23,15.08861489,0.0001684,53.2158,184.657,86.9346,273.1838,0.00060592,9.374e-05,0.0,0 STARLINK-4574,1 53733U 22107AK  23298.09263721  .00009374  00000-0  60592-3 0  9995,2 53733  53.2158 184.6570 0001684  86.9346 273.1838 15.08861489 63127,6917.815,95.436,540.845,538.515,0.0
53733.0,STARLINK-4574,PAYLOAD,2023-10-25 22:53:24,15.08844794,0.0001717,53.2161,180.7901,83.1996,276.9191,0.00025484,3.771e-05,0.0,0 STARLINK-4574,1 53733U 22107AK  23298.95376110  .00003771  00000-0  25484-3 0  9993,2 53733  53.2161 180.7901 0001717  83.1996 276.9191 15.08844794 63889,6917.866,95.437,540.919,538.543,0.0
53733.0,STARLINK-4574,PAYLOAD,2023-10-26 02:04:11,15.08845805,0.0001736,53.2164,180.1965,81.6486,278.4703,0.00030717,4.605e-05,0.0,0 STARLINK-4574,1 53733U 22107AK  23299.08624091  .00004605  00000-0  30717-3 0  9994,2 53733  53.2164 180.1965 0001736  81.6486 278.4703 15.08845805 63277,6917.863,95.437,540.929,538.527,0.0
53733.0,STARLINK-4574,PAYLOAD,2023-10-26 22:44:11,15.08866514,0.0001518,53.217,176.3305,84.4749,275.6416,0.00093434,0.00014624,0.0,0 STARLINK-4574,1 53733U 22107AK  23299.94735442  .00014624  00000-0  93434-3 0  9999,2 53733  53.2170 176.3305 0001518  84.4749 275.6416 15.08866514 64035,6917.799,95.436,540.714,538.614,0.0
53733.0,STARLINK-4574,PAYLOAD,2023-10-27 20:59:35,15.08842014,0.0001653,53.2158,172.1668,75.9144,284.2032,5.6403e-05,6.1e-06,0.0,0 STARLINK-4574,1 53733U 22107AK  23300.87471768  .00000610  00000-0  56403-4 0  9998,2 53733  53.2158 172.1668 0001653  75.9144 284.2032 15.08842014 63545,6917.874,95.437,540.883,538.596,0.0
53733.0,STARLINK-4574,PAYLOAD,2023-10-27 22:34:58,15.08845308,0.0001356,53.2158,171.8695,81.7441,278.3705,0.00013073,1.794e-05,0.0,0 STARLINK-4574,1 53733U 22107AK  23300.94095641  .00001794  00000-0  13073-3 0  9997,2 53733  53.2158 171.8695 0001356  81.7441 278.3705 15.08845308 64187,6917.864,95.437,540.667,538.791,0.0
53733.0,STARLINK-4574,PAYLOAD,2023-10-28 20:50:23,15.08830982,0.0001641,53.216,167.7113,100.0677,260.05,-6.8827e-05,-1.383e-05,0.0,0 STARLINK-4574,1 53733U 22107AK  23301.86832470 -.00001383  00000-0 -68827-4 0  9992,2 53733  53.2160 167.7113 0001641 100.0677 260.0500 15.08830982 63690,6917.908,95.438,540.908,538.638,0.0
53733.0,STARLINK-4574,PAYLOAD,2023-10-28 22:25:46,15.08830341,0.0001552,53.2154,167.4121,94.9475,265.1694,-0.00013401,-2.42e-05,0.0,0 STARLINK-4574,1 53733U 22107AK  23301.93456554 -.00002420  00000-0 -13401-3 0  9995,2 53733  53.2154 167.4121 0001552  94.9475 265.1694 15.08830341 64338,6917.91,95.438,540.849,538.701,0.0
53733.0,STARLINK-4574,PAYLOAD,2023-10-29 14:19:37,15.08840564,0.0001515,53.2151,164.4362,85.9646,274.152,0.00023132,3.395e-05,0.0,0 STARLINK-4574,1 53733U 22107AK  23302.59696536  .00003395  00000-0  23132-3 0  9996,2 53733  53.2151 164.4362 0001515  85.9646 274.1520 15.08840564 64435,6917.879,95.438,540.792,538.696,0.0
53733.0,STARLINK-4574,PAYLOAD,2023-10-29 20:41:10,15.08849466,0.0001542,53.2156,163.2478,89.7127,270.4042,0.00038062,5.776e-05,0.0,0 STARLINK-4574,1 53733U 22107AK  23302.86192192  .00005776  00000-0  38062-3 0  9998,2 53733  53.2156 163.2478 0001542  89.7127 270.4042 15.08849466 63843,6917.851,95.437,540.783,538.65,0.0
53733.0,STARLINK-4574,PAYLOAD,2023-10-29 22:16:33,15.08852295,0.0001538,53.2154,162.9503,89.0303,271.0865,0.00043144,6.587e-05,0.0,0 STARLINK-4574,1 53733U 22107AK  23302.92816090  .00006587  00000-0  43144-3 0  9993,2 53733  53.2154 162.9503 0001538  89.0303 271.0865 15.08852295 64485,6917.843,95.437,540.772,538.644,0.0
53733.0,STARLINK-4574,PAYLOAD,2023-10-30 18:56:34,15.0883806,0.000122,53.2144,159.0842,70.6109,289.5015,5.0655e-05,5.18e-06,0.0,0 STARLINK-4574,1 53733U 22107AK  23303.78928637  .00000518  00000-0  50655-4 0  9993,2 53733  53.2144 159.0842 0001220  70.6109 289.5015 15.08838060 63984,6917.886,95.438,540.595,538.907,0.0
53733.0,STARLINK-4574,PAYLOAD,2023-10-30 22:07:20,15.08837545,0.000149,53.2143,158.4894,80.937,279.179,3.4497e-05,2.61e-06,0.0,0 STARLINK-4574,1 53733U 22107AK  23303.92176687  .00000261  00000-0  34497-4 0  9990,2 53733  53.2143 158.4894 0001490  80.9370 279.1790 15.08837545 64631,6917.888,95.438,540.784,538.722,0.0
53733.0,STARLINK-4574,PAYLOAD,2023-10-31 07:39:39,15.08837947,0.0001513,53.2142,156.7053,80.5888,279.5275,0.00014575,2.032e-05,0.0,0 STARLINK-4574,1 53733U 22107AK  23304.31920809  .00002032  00000-0  14575-3 0  9999,2 53733  53.2142 156.7053 0001513  80.5888 279.5275 15.08837947 64698,6917.887,95.438,540.798,538.705,0.0
53733.0,STARLINK-4574,PAYLOAD,2023-10-31 20:22:44,15.08847505,0.0001487,53.2147,154.3261,78.5118,281.6042,0.00031677,4.758e-05,0.0,0 STARLINK-4574,1 53733U 22107AK  23304.84912596  .00004758  00000-0  31677-3 0  9990,2 53733  53.2147 154.3261 0001487  78.5118 281.6042 15.08847505 64148,6917.857,95.437,540.751,538.694,0.0
53733.0,STARLINK-4574,PAYLOAD,2023-11-01 13:51:59,15.0884161,0.0001538,53.2144,151.0555,78.9327,281.1838,0.00021236,3.093e-05,0.0,0 STARLINK-4574,1 53733U 22107AK  23305.57776819  .00003093  00000-0  21236-3 0  9998,2 53733  53.2144 151.0555 0001538  78.9327 281.1838 15.08841610 64888,6917.875,95.437,540.804,538.676,0.0
53733.0,STARLINK-4574,PAYLOAD,2023-11-01 20:13:31,15.08845457,0.0001778,53.2149,149.864,95.776,264.3434,0.00028564,4.261e-05,0.0,0 STARLINK-4574,1 53733U 22107AK  23305.84272659  .00004261  00000-0  28564-3 0  9990,2 53733  53.2149 149.8640 0001778  95.7760 264.3434 15.08845457 64290,6917.864,95.437,540.959,538.499,0.0
53733.0,STARLINK-4574,PAYLOAD,2023-11-02 13:42:46,15.08842667,0.0001857,53.215,146.5925,92.431,267.6894,6.6173e-05,7.65e-06,0.0,0 STARLINK-4574,1 53733U 22107AK  23306.57136711  .00000765  00000-0  66173-4 0  9993,2 53733  53.2150 146.5925 0001857  92.4310 267.6894 15.08842667 65034,6917.872,95.437,541.022,538.453,0.0
53733.0,STARLINK-4574,PAYLOAD,2023-11-02 20:04:18,15.08843511,0.0001503,53.2154,145.4039,91.6379,268.4785,4.3391e-05,4.03e-06,0.0,0 STARLINK-4574,1 53733U 22107AK  23306.83632601  .00000403  00000-0  43391-4 0  9997,2 53733  53.2154 145.4039 0001503  91.6379 268.4785 15.08843511 64447,6917.87,95.437,540.774,538.695,0.0
53733.0,STARLINK-4574,PAYLOAD,2023-11-03 04:01:14,15.08833539,0.0001507,53.2152,143.9169,92.6773,267.4391,-8.515e-05,-1.643e-05,0.0,0 STARLINK-4574,1 53733U 22107AK  23307.16752992 -.00001643  00000-0 -85150-4 0  9998,2 53733  53.2152 143.9169 0001507  92.6773 267.4391 15.08833539 64491,6917.9,95.438,540.808,538.723,0.0
53733.0,STARLINK-4574,PAYLOAD,2023-11-03 13:33:33,15.08835895,0.0001537,53.2148,142.1331,95.9522,264.1645,-1.2911e-06,-3.09e-06,0.0,0 STARLINK-4574,1 53733U 22107AK  23307.56496978 -.00000309  00000-0 -12911-5 0  9995,2 53733  53.2148 142.1331 0001537  95.9522 264.1645 15.08835895 65189,6917.893,95.438,540.821,538.695,0.0
53733.0,STARLINK-4574,PAYLOAD,2023-11-03 21:30:28,15.08841635,0.0001374,53.2166,140.6471,91.8317,268.2832,5.1521e-05,5.32e-06,0.0,0 STARLINK-4574,1 53733U 22107AK  23307.89616812  .00000532  00000-0  51521-4 0  9997,2 53733  53.2166 140.6471 0001374  91.8317 268.2832 15.08841635 65231,6917.875,95.437,540.691,538.79,0.0
53733.0,STARLINK-4574,PAYLOAD,2023-11-03 23:05:51,15.0884237,0.0001406,53.2165,140.3499,94.0725,266.0428,7.7989e-05,9.54e-06,0.0,0 STARLINK-4574,1 53733U 22107AK  23307.96240716  .00000954  00000-0  77989-4 0  9995,2 53733  53.2165 140.3499 0001406  94.0725 266.0428 15.08842370 64616,6917.873,95.437,540.711,538.765,0.0
53733.0,STARLINK-4574,PAYLOAD,2023-11-04 11:48:57,15.08836749,0.0001366,53.2157,137.9709,94.7634,265.3515,6.9844e-05,8.24e-06,0.0,0 STARLINK-4574,1 53733U 22107AK  23308.49233070  .00000824  00000-0  69844-4 0  9996,2 53733  53.2157 137.9709 0001366  94.7634 265.3515 15.08836749 65325,6917.89,95.438,540.7,538.81,0.0
53733.0,STARLINK-4574,PAYLOAD,2023-11-04 19:45:52,15.08844432,0.0001341,53.2156,136.484,92.1551,267.9595,0.00016153,2.284e-05,0.0,0 STARLINK-4574,1 53733U 22107AK  23308.82352827  .00002284  00000-0  16153-3 0  9991,2 53733  53.2156 136.4840 0001341  92.1551 267.9595 15.08844432 65376,6917.867,95.437,540.66,538.804,0.0
53733.0,STARLINK-4574,PAYLOAD,2023-11-05 05:18:11,15.08845431,0.0001328,53.2157,134.6999,92.1405,267.9739,0.00019884,2.878e-05,0.0,0 STARLINK-4574,1 53733U 22107AK  23309.22096819  .00002878  00000-0  19884-3 0  9995,2 53733  53.2157 134.6999 0001328  92.1405 267.9739 15.08845431 64802,6917.864,95.437,540.647,538.81,0.0
53733.0,STARLINK-4574,PAYLOAD,2023-11-05 13:15:07,15.08846509,0.000132,53.2156,133.213,92.3894,267.725,0.00020087,2.911e-05,0.0,0 STARLINK-4574,1 53733U 22107AK  23309.55216692  .00002911  00000-0  20087-3 0  9999,2 53733  53.2156 133.2130 0001320  92.3894 267.7250 15.08846509 65487,6917.86,95.437,540.639,538.812,0.0
53733.0,STARLINK-4574,PAYLOAD,2023-11-05 19:36:39,15.08854682,0.0001309,53.2156,132.0237,93.426,266.6882,0.00033554,5.058e-05,0.0,0 STARLINK-4574,1 53733U 22107AK  23309.81712280  .00005058  00000-0  33554-3 0  9990,2 53733  53.2156 132.0237 0001309  93.4260 266.6882 15.08854682 65523,6917.836,95.437,540.606,538.795,0.0
